{"type": "FeatureCollection", "features": [ {"type": "Feature", "properties": {"norad_id": 66638, "name": "STARLINK-35972", "group": "last-30-days", "lat": 37.65960417798371, "lon": -37.15142716033561, "alt_km": 413.7318400165832, "timestamp": "2025-12-14T14:39:28.132715+00:00", "meta": {"OBJECT_NAME": "STARLINK-35972", "OBJECT_ID": "2025-271X", "EPOCH": "2025-12-13T20:00:03.000384", "MEAN_MOTION": 15.49342989, "ECCENTRICITY": 5.239e-05, "INCLINATION": 53.1599, "RA_OF_ASC_NODE": 181.9194, "ARG_OF_PERICENTER": 64.3688, "MEAN_ANOMALY": 47.4605, "EPHEMERIS_TYPE": 0, "CLASSIFICATION_TYPE": "U", "NORAD_CAT_ID": 66638, "ELEMENT_SET_NO": 999, "REV_AT_EPOCH": 441, "BSTAR": -0.00045131259, "MEAN_MOTION_DOT": -0.00025495, "MEAN_MOTION_DDOT": 0}, "tle": {"line1": "1 66638U 25271X   25347.83336806 -.00025495  00000+0 -45131-3 0  9997", "line2": "2 66638  53.1599 181.9194 0000523  64.3688  47.4605 15.49342989  4410"}}, "geometry": {"type": "Point", "coordinates": [-37.15142716033561, 37.65960417798371]}}, {"type": "Feature", "properties": {"norad_id": 66639, "name": "STARLINK-35908", "group": "last-30-days", "lat": 36.32739549262753, "lon": -35.25799012303337, "alt_km": 413.63298119707633, "timestamp": "2025-12-14T14:39:28.132725+00:00", "meta": {"OBJECT_NAME": "STARLINK-35908", "OBJECT_ID": "2025-271Y", "EPOCH": "2025-12-13T20:00:03.000384", "MEAN_MOTION": 15.4929602, "ECCENTRICITY": 5.694e-05, "INCLINATION": 53.1599, "RA_OF_ASC_NODE": 181.9151, "ARG_OF_PERICENTER": 59.8792, "MEAN_ANOMALY": 53.8692, "EPHEMERIS_TYPE": 0, "CLASSIFICATION_TYPE": "U", "NORAD_CAT_ID": 66639, "ELEMENT_SET_NO": 999, "REV_AT_EPOCH": 441, "BSTAR": 0.0014210096, "MEAN_MOTION_DOT": 0.00079353, "MEAN_MOTION_DDOT": 0}, "tle": {"line1": "1 66639U 25271Y   25347.83336806  .00079353  00000+0  14210-2 0  9991", "line2": "2 66639  53.1599 181.9151 0000569  59.8792  53.8692 15.49296020  4410"}}, "geometry": {"type": "Point", "coordinates": [-35.25799012303337, 36.32739549262753]}}, {"type": "Feature", "properties": {"norad_id": 66640, "name": "STARLINK-35921", "group": "last-30-days", "lat": 35.050007274957935, "lon": -33.538044736790575, "alt_km": 413.5594862708149, "timestamp": "2025-12-14T14:39:28.132739+00:00", "meta": {"OBJECT_NAME": "STARLINK-35921", "OBJECT_ID": "2025-271Z", "EPOCH": "2025-12-13T20:00:03.000384", "MEAN_MOTION": 15.49273434, "ECCENTRICITY": 0.00012222, "INCLINATION": 53.1601, "RA_OF_ASC_NODE": 181.9112, "ARG_OF_PERICENTER": 81.9607, "MEAN_ANOMALY": 33.767, "EPHEMERIS_TYPE": 0, "CLASSIFICATION_TYPE": "U", "NORAD_CAT_ID": 66640, "ELEMENT_SET_NO": 999, "REV_AT_EPOCH": 441, "BSTAR": 0.0011924891, "MEAN_MOTION_DOT": 0.00066355, "MEAN_MOTION_DDOT": 0}, "tle": {"line1": "1 66640U 25271Z   25347.83336806  .00066355  00000+0  11925-2 0  9991", "line2": "2 66640  53.1601 181.9112 0001222  81.9607  33.7670 15.49273434  4418"}}, "geometry": {"type": "Point", "coordinates": [-33.538044736790575, 35.050007274957935]}}, {"type": "Feature", "properties": {"norad_id": 66641, "name": "STARLINK-35923", "group": "last-30-days", "lat": 29.654728090730874, "lon": -27.091833887342837, "alt_km": 414.4699603576946, "timestamp": "2025-12-14T14:39:28.132749+00:00", "meta": {"OBJECT_NAME": "STARLINK-35923", "OBJECT_ID": "2025-271AA", "EPOCH": "2025-12-13T20:00:03.000384", "MEAN_MOTION": 15.49276543, "ECCENTRICITY": 0.00012518, "INCLINATION": 53.16, "RA_OF_ASC_NODE": 181.894, "ARG_OF_PERICENTER": 85.5705, "MEAN_ANOMALY": 37.8185, "EPHEMERIS_TYPE": 0, "CLASSIFICATION_TYPE": "U", "NORAD_CAT_ID": 66641, "ELEMENT_SET_NO": 999, "REV_AT_EPOCH": 441, "BSTAR": 0.0011283943, "MEAN_MOTION_DOT": 0.00062742, "MEAN_MOTION_DDOT": 0}, "tle": {"line1": "1 66641U 25271AA  25347.83336806  .00062742  00000+0  11284-2 0  9996", "line2": "2 66641  53.1600 181.8940 0001251  85.5705  37.8185 15.49276543  4417"}}, "geometry": {"type": "Point", "coordinates": [-27.091833887342837, 29.654728090730874]}}, {"type": "Feature", "properties": {"norad_id": 66642, "name": "STARLINK-35926", "group": "last-30-days", "lat": 31.03444548922814, "lon": -28.63300870039026, "alt_km": 414.6174838421066, "timestamp": "2025-12-14T14:39:28.132759+00:00", "meta": {"OBJECT_NAME": "STARLINK-35926", "OBJECT_ID": "2025-271AB", "EPOCH": "2025-12-13T20:00:03.000384", "MEAN_MOTION": 15.49301362, "ECCENTRICITY": 6.862e-05, "INCLINATION": 53.1598, "RA_OF_ASC_NODE": 181.8992, "ARG_OF_PERICENTER": 54.3948, "MEAN_ANOMALY": 67.0112, "EPHEMERIS_TYPE": 0, "CLASSIFICATION_TYPE": "U", "NORAD_CAT_ID": 66642, "ELEMENT_SET_NO": 999, "REV_AT_EPOCH": 418, "BSTAR": 0.0011272017, "MEAN_MOTION_DOT": 0.0006273, "MEAN_MOTION_DDOT": 0}, "tle": {"line1": "1 66642U 25271AB  25347.83336806  .00062730  00000+0  11272-2 0  9991", "line2": "2 66642  53.1598 181.8992 0000686  54.3948  67.0112 15.49301362  4182"}}, "geometry": {"type": "Point", "coordinates": [-28.63300870039026, 31.03444548922814]}}, {"type": "Feature", "properties": {"norad_id": 66643, "name": "STARLINK-35918", "group": "last-30-days", "lat": 33.740909089666395, "lon": -31.861983347088188, "alt_km": 413.8685828881098, "timestamp": "2025-12-14T14:39:28.132768+00:00", "meta": {"OBJECT_NAME": "STARLINK-35918", "OBJECT_ID": "2025-271AC", "EPOCH": "2025-12-13T20:00:03.000384", "MEAN_MOTION": 15.49271923, "ECCENTRICITY": 0.00011391, "INCLINATION": 53.16, "RA_OF_ASC_NODE": 181.9074, "ARG_OF_PERICENTER": 81.4287, "MEAN_ANOMALY": 36.2236, "EPHEMERIS_TYPE": 0, "CLASSIFICATION_TYPE": "U", "NORAD_CAT_ID": 66643, "ELEMENT_SET_NO": 999, "REV_AT_EPOCH": 441, "BSTAR": 0.0010617506, "MEAN_MOTION_DOT": 0.00058971, "MEAN_MOTION_DDOT": 0}, "tle": {"line1": "1 66643U 25271AC  25347.83336806  .00058971  00000+0  10618-2 0  9997", "line2": "2 66643  53.1600 181.9074 0001139  81.4287  36.2236 15.49271923  4410"}}, "geometry": {"type": "Point", "coordinates": [-31.861983347088188, 33.740909089666395]}}, {"type": "Feature", "properties": {"norad_id": 66644, "name": "STARLINK-35938", "group": "last-30-days", "lat": 32.3672757825304, "lon": -30.186780522838454, "alt_km": 414.49907073873055, "timestamp": "2025-12-14T14:39:28.132779+00:00", "meta": {"OBJECT_NAME": "STARLINK-35938", "OBJECT_ID": "2025-271AD", "EPOCH": "2025-12-13T20:00:03.000384", "MEAN_MOTION": 15.49382846, "ECCENTRICITY": 7.602e-05, "INCLINATION": 53.1598, "RA_OF_ASC_NODE": 181.9033, "ARG_OF_PERICENTER": 59.6495, "MEAN_ANOMALY": 59.8438, "EPHEMERIS_TYPE": 0, "CLASSIFICATION_TYPE": "U", "NORAD_CAT_ID": 66644, "ELEMENT_SET_NO": 999, "REV_AT_EPOCH": 441, "BSTAR": -0.00046881726, "MEAN_MOTION_DOT": -0.00026501, "MEAN_MOTION_DDOT": 0}, "tle": {"line1": "1 66644U 25271AD  25347.83336806 -.00026501  00000+0 -46882-3 0  9997", "line2": "2 66644  53.1598 181.9033 0000760  59.6495  59.8438 15.49382846  4411"}}, "geometry": {"type": "Point", "coordinates": [-30.186780522838454, 32.3672757825304]}}, {"type": "Feature", "properties": {"norad_id": 66645, "name": "SHENZHOU-22", "group": "last-30-days", "lat": -23.535482128556787, "lon": -145.102175070395, "alt_km": 397.23414912008866, "timestamp": "2025-12-14T14:39:28.132789+00:00", "meta": {"OBJECT_NAME": "SHENZHOU-22", "OBJECT_ID": "2025-272A", "EPOCH": "2025-12-13T19:17:07.421568", "MEAN_MOTION": 15.59230309, "ECCENTRICITY": 0.00080892, "INCLINATION": 41.4685, "RA_OF_ASC_NODE": 10.2494, "ARG_OF_PERICENTER": 39.7422, "MEAN_ANOMALY": 320.4007, "EPHEMERIS_TYPE": 0, "CLASSIFICATION_TYPE": "U", "NORAD_CAT_ID": 66645, "ELEMENT_SET_NO": 999, "REV_AT_EPOCH": 26357, "BSTAR": 0.00031564739, "MEAN_MOTION_DOT": 0.00025274, "MEAN_MOTION_DDOT": 0}, "tle": {"line1": "1 66645U 25272A   25347.80355812  .00025274  00000+0  31565-3 0  9990", "line2": "2 66645  41.4685  10.2494 0008089  39.7422 320.4007 15.59230309263575"}}, "geometry": {"type": "Point", "coordinates": [-145.102175070395, -23.535482128556787]}}, {"type": "Feature", "properties": {"norad_id": 66647, "name": "COSMOS 2597 (RODNIK-S 22)", "group": "last-30-days", "lat": -10.089583302945725, "lon": 106.63042727216326, "alt_km": 1502.7647954648846, "timestamp": "2025-12-14T14:39:28.132801+00:00", "meta": {"OBJECT_NAME": "COSMOS 2597 (RODNIK-S 22)", "OBJECT_ID": "2025-273A", "EPOCH": "2025-12-13T22:10:10.579584", "MEAN_MOTION": 12.419517, "ECCENTRICITY": 0.00078714, "INCLINATION": 82.4988, "RA_OF_ASC_NODE": 285.7136, "ARG_OF_PERICENTER": 286.2471, "MEAN_ANOMALY": 73.7742, "EPHEMERIS_TYPE": 0, "CLASSIFICATION_TYPE": "U", "NORAD_CAT_ID": 66647, "ELEMENT_SET_NO": 999, "REV_AT_EPOCH": 228, "BSTAR": 0.00045572818, "MEAN_MOTION_DOT": 7.2e-07, "MEAN_MOTION_DDOT": 0}, "tle": {"line1": "1 66647U 25273A   25347.92373356  .00000072  00000+0  45573-3 0  9992", "line2": "2 66647  82.4988 285.7136 0007871 286.2471  73.7742 12.41951700  2287"}}, "geometry": {"type": "Point", "coordinates": [106.63042727216326, -10.089583302945725]}}, {"type": "Feature", "properties": {"norad_id": 66648, "name": "COSMOS 2598 (RODNIK-S 23)", "group": "last-30-days", "lat": -53.88346228871189, "lon": 115.682822628471, "alt_km": 1493.5544567420056, "timestamp": "2025-12-14T14:39:28.132814+00:00", "meta": {"OBJECT_NAME": "COSMOS 2598 (RODNIK-S 23)", "OBJECT_ID": "2025-273B", "EPOCH": "2025-12-13T21:56:55.645152", "MEAN_MOTION": 12.4323336, "ECCENTRICITY": 0.0008, "INCLINATION": 82.5023, "RA_OF_ASC_NODE": 285.7186, "ARG_OF_PERICENTER": 234.2018, "MEAN_ANOMALY": 125.8319, "EPHEMERIS_TYPE": 0, "CLASSIFICATION_TYPE": "U", "NORAD_CAT_ID": 66648, "ELEMENT_SET_NO": 999, "REV_AT_EPOCH": 228, "BSTAR": -5.3457313e-05, "MEAN_MOTION_DOT": 2e-08, "MEAN_MOTION_DDOT": 0}, "tle": {"line1": "1 66648U 25273B   25347.91453293  .00000002  00000+0 -53457-4 0  9996", "line2": "2 66648  82.5023 285.7186 0008000 234.2018 125.8319 12.43233360  2285"}}, "geometry": {"type": "Point", "coordinates": [115.682822628471, -53.88346228871189]}}]}